[{"OBJECT_NAME":"OBJECT M","OBJECT_ID":"2024-205M","EPOCH":"2026-03-09T22:23:47.520096","MEAN_MOTION":15.27663844,"ECCENTRICITY":0.00036602,"INCLINATION":97.3915,"RA_OF_ASC_NODE":144.193,"ARG_OF_PERICENTER":310.2554,"MEAN_ANOMALY":49.8364,"EPHEMERIS_TYPE":0,"CLASSIFICATION_TYPE":"U","NORAD_CAT_ID":61905,"ELEMENT_SET_NO":999,"REV_AT_EPOCH":7334,"BSTAR":0.00036391974,"MEAN_MOTION_DOT":9.771e-5,"MEAN_MOTION_DDOT":0},{"OBJECT_NAME":"STARLINK-36196","OBJECT_ID":"2025-299F","EPOCH":"2026-03-09T22:00:01.999584","MEAN_MOTION":15.27593143,"ECCENTRICITY":0.0002044,"INCLINATION":43.0008,"RA_OF_ASC_NODE":167.7887,"ARG_OF_PERICENTER":283.4404,"MEAN_ANOMALY":308.9963,"EPHEMERIS_TYPE":0,"CLASSIFICATION_TYPE":"U","NORAD_CAT_ID":67107,"ELEMENT_SET_NO":999,"REV_AT_EPOCH":575,"BSTAR":-0.00053995244,"MEAN_MOTION_DOT":-0.00015097,"MEAN_MOTION_DDOT":0}]
